start=new Date('2021-12-31T00:00:00.000Z').valueOf();
sats=[{"TIME_SYSTEM":"UTC","TLE_LINE1":"1 49740U 21115S   21364.84888884  .00001353  00000-0  42704-4 0  9999","DECAY_DATE":null,"COUNTRY_CODE":"US","CENTER_NAME":"EARTH","PERIOD":"93.478","MEAN_MOTION":"15.40467673","ARG_OF_PERICENTER":"46.4295","MEAN_MOTION_DDOT":"0.0000000000000","GP_ID":"192795683","EPOCH":"2021-12-30T20:22:23.995776","NORAD_CAT_ID":"49740","REV_AT_EPOCH":"445","RCS_SIZE":"LARGE","BSTAR":"0.00004270400000","MEAN_MOTION_DOT":"0.00001353","PERIAPSIS":"443.447","LAUNCH_DATE":"2021-12-02","APOAPSIS":"446.013","MEAN_ANOMALY":"313.6867","FILE":"3255240","ECCENTRICITY":"0.00018810","MEAN_ELEMENT_THEORY":"SGP4","EPHEMERIS_TYPE":"0","INCLINATION":"53.2143","SEMIMAJOR_AXIS":"6822.865","CLASSIFICATION_TYPE":"U","ELEMENT_SET_NO":"999","REF_FRAME":"TEME","RA_OF_ASC_NODE":"185.7936","OBJECT_ID":"2021-115S","OBJECT_NAME":"STARLINK-3226","SITE":"AFETR","OBJECT_TYPE":"PAYLOAD","TLE_LINE2":"2 49740  53.2143 185.7936 0001881  46.4295 313.6867 15.40467673  4451"},{"MEAN_ANOMALY":"316.3172","FILE":"3255240","LAUNCH_DATE":"2021-12-02","APOAPSIS":"446.010","BSTAR":"0.00006962600000","MEAN_MOTION_DOT":"0.00002461","PERIAPSIS":"443.450","REV_AT_EPOCH":"445","RCS_SIZE":"LARGE","COUNTRY_CODE":"US","CENTER_NAME":"EARTH","PERIOD":"93.478","MEAN_MOTION":"15.40467717","DECAY_DATE":null,"TLE_LINE1":"1 49741U 21115T   21364.84850969  .00002461  00000-0  69626-4 0  9996","TIME_SYSTEM":"UTC","EPOCH":"2021-12-30T20:21:51.237216","NORAD_CAT_ID":"49741","ARG_OF_PERICENTER":"43.7982","GP_ID":"192796933","MEAN_MOTION_DDOT":"0.0000000000000","OBJECT_NAME":"STARLINK-3244","OBJECT_ID":"2021-115T","RA_OF_ASC_NODE":"185.7922","REF_FRAME":"TEME","ELEMENT_SET_NO":"999","SITE":"AFETR","OBJECT_TYPE":"PAYLOAD","TLE_LINE2":"2 49741  53.2144 185.7922 0001876  43.7982 316.3172 15.40467717  4453","EPHEMERIS_TYPE":"0","ECCENTRICITY":"0.00018760","MEAN_ELEMENT_THEORY":"SGP4","CLASSIFICATION_TYPE":"U","INCLINATION":"53.2144","SEMIMAJOR_AXIS":"6822.865"},{"SEMIMAJOR_AXIS":"6822.865","INCLINATION":"53.2140","CLASSIFICATION_TYPE":"U","MEAN_ELEMENT_THEORY":"SGP4","ECCENTRICITY":"0.00018310","EPHEMERIS_TYPE":"0","TLE_LINE2":"2 49742  53.2140 185.7960 0001831  40.2901 319.8240 15.40467823  4458","OBJECT_TYPE":"PAYLOAD","SITE":"AFETR","OBJECT_ID":"2021-115U","OBJECT_NAME":"STARLINK-3202","ELEMENT_SET_NO":"999","REF_FRAME":"TEME","RA_OF_ASC_NODE":"185.7960","MEAN_MOTION_DDOT":"0.0000000000000","GP_ID":"192796684","ARG_OF_PERICENTER":"40.2901","NORAD_CAT_ID":"49742","EPOCH":"2021-12-30T20:22:56.642880","MEAN_MOTION":"15.40467823","PERIOD":"93.478","COUNTRY_CODE":"US","CENTER_NAME":"EARTH","TIME_SYSTEM":"UTC","TLE_LINE1":"1 49742U 21115U   21364.84926670  .00003709  00000-0  99947-4 0  9995","DECAY_DATE":null,"APOAPSIS":"445.979","LAUNCH_DATE":"2021-12-02","FILE":"3255240","MEAN_ANOMALY":"319.8240","RCS_SIZE":"LARGE","REV_AT_EPOCH":"445","MEAN_MOTION_DOT":"0.00003709","PERIAPSIS":"443.480","BSTAR":"0.00009994700000"},{"LAUNCH_DATE":"2021-12-02","APOAPSIS":"446.010","MEAN_ANOMALY":"314.1395","FILE":"3255240","REV_AT_EPOCH":"445","RCS_SIZE":"LARGE","BSTAR":"0.00002205200000","PERIAPSIS":"443.446","MEAN_MOTION_DOT":"0.00000504","CENTER_NAME":"EARTH","COUNTRY_CODE":"US","PERIOD":"93.478","MEAN_MOTION":"15.40468248","TIME_SYSTEM":"UTC","TLE_LINE1":"1 49743U 21115V   21364.84869898  .00000504  00000-0  22052-4 0  9997","DECAY_DATE":null,"ARG_OF_PERICENTER":"45.9765","MEAN_MOTION_DDOT":"0.0000000000000","GP_ID":"192795433","EPOCH":"2021-12-30T20:22:07.591872","NORAD_CAT_ID":"49743","OBJECT_ID":"2021-115V","OBJECT_NAME":"STARLINK-3239","REF_FRAME":"TEME","ELEMENT_SET_NO":"999","RA_OF_ASC_NODE":"185.7926","SITE":"AFETR","TLE_LINE2":"2 49743  53.2147 185.7926 0001879  45.9765 314.1395 15.40468248  4451","OBJECT_TYPE":"PAYLOAD","ECCENTRICITY":"0.00018790","MEAN_ELEMENT_THEORY":"SGP4","EPHEMERIS_TYPE":"0","INCLINATION":"53.2147","SEMIMAJOR_AXIS":"6822.863","CLASSIFICATION_TYPE":"U"},{"ECCENTRICITY":"0.00018590","MEAN_ELEMENT_THEORY":"SGP4","EPHEMERIS_TYPE":"0","INCLINATION":"53.2159","SEMIMAJOR_AXIS":"6822.883","CLASSIFICATION_TYPE":"U","OBJECT_ID":"2021-115W","OBJECT_NAME":"STARLINK-3231","REF_FRAME":"TEME","ELEMENT_SET_NO":"999","RA_OF_ASC_NODE":"185.7979","SITE":"AFETR","OBJECT_TYPE":"PAYLOAD","TLE_LINE2":"2 49744  53.2159 185.7979 0001859  39.5530 320.5612 15.40461766  4451","COUNTRY_CODE":"US","PERIOD":"93.478","CENTER_NAME":"EARTH","MEAN_MOTION":"15.40461766","TLE_LINE1":"1 49744U 21115W   21364.84965406  .00000101  00000-0  12279-4 0  9993","TIME_SYSTEM":"UTC","DECAY_DATE":null,"ARG_OF_PERICENTER":"39.5530","GP_ID":"192796182","MEAN_MOTION_DDOT":"0.0000000000000","EPOCH":"2021-12-30T20:23:30.110784","NORAD_CAT_ID":"49744","LAUNCH_DATE":"2021-12-02","APOAPSIS":"446.016","MEAN_ANOMALY":"320.5612","FILE":"3255240","REV_AT_EPOCH":"445","RCS_SIZE":"LARGE","BSTAR":"0.00001227900000","PERIAPSIS":"443.479","MEAN_MOTION_DOT":"0.00000101"},{"GP_ID":"192796434","MEAN_MOTION_DDOT":"0.0000000000000","ARG_OF_PERICENTER":"43.2513","NORAD_CAT_ID":"49745","EPOCH":"2021-12-30T20:22:40.688256","TLE_LINE1":"1 49745U 21115X   21364.84908204 -.00000465  00000-0 -15016-5 0  9995","TIME_SYSTEM":"UTC","DECAY_DATE":null,"MEAN_MOTION":"15.40463068","COUNTRY_CODE":"US","CENTER_NAME":"EARTH","PERIOD":"93.478","RCS_SIZE":"LARGE","REV_AT_EPOCH":"445","PERIAPSIS":"443.454","MEAN_MOTION_DOT":"-0.00000465","BSTAR":"-0.00000150160000","APOAPSIS":"446.033","LAUNCH_DATE":"2021-12-02","FILE":"3255240","MEAN_ANOMALY":"316.8641","SEMIMAJOR_AXIS":"6822.879","INCLINATION":"53.2148","CLASSIFICATION_TYPE":"U","MEAN_ELEMENT_THEORY":"SGP4","ECCENTRICITY":"0.00018900","EPHEMERIS_TYPE":"0","OBJECT_TYPE":"PAYLOAD","TLE_LINE2":"2 49745  53.2148 185.7953 0001890  43.2513 316.8641 15.40463068  4457","SITE":"AFETR","REF_FRAME":"TEME","ELEMENT_SET_NO":"999","RA_OF_ASC_NODE":"185.7953","OBJECT_ID":"2021-115X","OBJECT_NAME":"STARLINK-3241"},{"INCLINATION":"53.2159","SEMIMAJOR_AXIS":"6822.875","CLASSIFICATION_TYPE":"U","ECCENTRICITY":"0.00017760","MEAN_ELEMENT_THEORY":"SGP4","EPHEMERIS_TYPE":"0","SITE":"AFETR","OBJECT_TYPE":"PAYLOAD","TLE_LINE2":"2 49746  53.2159 185.4895 0001776  37.2443 332.7984 15.40464169  3639","REF_FRAME":"TEME","ELEMENT_SET_NO":"999","RA_OF_ASC_NODE":"185.4895","OBJECT_ID":"2021-115Y","OBJECT_NAME":"STARLINK-3233","ARG_OF_PERICENTER":"37.2443","GP_ID":"192797184","MEAN_MOTION_DDOT":"0.0000000000000","EPOCH":"2021-12-30T22:00:01.999584","NORAD_CAT_ID":"49746","TIME_SYSTEM":"UTC","TLE_LINE1":"1 49746U 21115Y   21364.91668981  .00001185  00000-0  38606-4 0  9996","DECAY_DATE":null,"COUNTRY_CODE":"US","CENTER_NAME":"EARTH","PERIOD":"93.478","MEAN_MOTION":"15.40464169","REV_AT_EPOCH":"363","RCS_SIZE":"LARGE","BSTAR":"0.00003860600000","PERIAPSIS":"443.529","MEAN_MOTION_DOT":"0.00001185","LAUNCH_DATE":"2021-12-02","APOAPSIS":"445.952","MEAN_ANOMALY":"332.7984","FILE":"3255240"},{"MEAN_ANOMALY":"320.3548","FILE":"3255240","LAUNCH_DATE":"2021-12-02","APOAPSIS":"446.124","BSTAR":"0.00002851400000","PERIAPSIS":"443.434","MEAN_MOTION_DOT":"0.00000769","REV_AT_EPOCH":"445","RCS_SIZE":"LARGE","EPOCH":"2021-12-30T20:23:13.679232","NORAD_CAT_ID":"49747","ARG_OF_PERICENTER":"39.7603","GP_ID":"192795933","MEAN_MOTION_DDOT":"0.0000000000000","CENTER_NAME":"EARTH","COUNTRY_CODE":"US","PERIOD":"93.479","MEAN_MOTION":"15.40451119","DECAY_DATE":null,"TIME_SYSTEM":"UTC","TLE_LINE1":"1 49747U 21115Z   21364.84946388  .00000769  00000-0  28514-4 0  9993","SITE":"AFETR","OBJECT_TYPE":"PAYLOAD","TLE_LINE2":"2 49747  53.2161 185.7974 0001971  39.7603 320.3548 15.40451119  4457","OBJECT_NAME":"STARLINK-3247","OBJECT_ID":"2021-115Z","RA_OF_ASC_NODE":"185.7974","REF_FRAME":"TEME","ELEMENT_SET_NO":"999","CLASSIFICATION_TYPE":"U","INCLINATION":"53.2161","SEMIMAJOR_AXIS":"6822.914","EPHEMERIS_TYPE":"0","ECCENTRICITY":"0.00019710","MEAN_ELEMENT_THEORY":"SGP4"},{"SITE":"AFETR","OBJECT_TYPE":"PAYLOAD","TLE_LINE2":"2 49748  53.2164 185.8038 0001629  47.3195 312.7948 15.40465235  4457","OBJECT_NAME":"STARLINK-3248","OBJECT_ID":"2021-115AA","RA_OF_ASC_NODE":"185.8038","ELEMENT_SET_NO":"999","REF_FRAME":"TEME","CLASSIFICATION_TYPE":"U","INCLINATION":"53.2164","SEMIMAJOR_AXIS":"6822.872","EPHEMERIS_TYPE":"0","ECCENTRICITY":"0.00016290","MEAN_ELEMENT_THEORY":"SGP4","MEAN_ANOMALY":"312.7948","FILE":"3255240","LAUNCH_DATE":"2021-12-02","APOAPSIS":"445.849","BSTAR":"0.00000323430000","MEAN_MOTION_DOT":"-0.00000270","PERIAPSIS":"443.626","REV_AT_EPOCH":"445","RCS_SIZE":"LARGE","EPOCH":"2021-12-30T20:24:35.158752","NORAD_CAT_ID":"49748","ARG_OF_PERICENTER":"47.3195","MEAN_MOTION_DDOT":"0.0000000000000","GP_ID":"192795684","COUNTRY_CODE":"US","CENTER_NAME":"EARTH","PERIOD":"93.478","MEAN_MOTION":"15.40465235","DECAY_DATE":null,"TLE_LINE1":"1 49748U 21115AA  21364.85040693 -.00000270  00000-0  32343-5 0  9993","TIME_SYSTEM":"UTC"},{"RCS_SIZE":"LARGE","REV_AT_EPOCH":"445","PERIAPSIS":"443.418","MEAN_MOTION_DOT":"0.00001957","BSTAR":"0.00005736700000","APOAPSIS":"446.019","LAUNCH_DATE":"2021-12-02","FILE":"3255240","MEAN_ANOMALY":"310.7789","TIME_SYSTEM":"UTC","TLE_LINE1":"1 49749U 21115AB  21364.84983160  .00001957  00000-0  57367-4 0  9992","DECAY_DATE":null,"MEAN_MOTION":"15.40471510","CENTER_NAME":"EARTH","COUNTRY_CODE":"US","PERIOD":"93.478","MEAN_MOTION_DDOT":"0.0000000000000","GP_ID":"192796934","ARG_OF_PERICENTER":"49.3383","NORAD_CAT_ID":"49749","EPOCH":"2021-12-30T20:23:45.450240","ELEMENT_SET_NO":"999","REF_FRAME":"TEME","RA_OF_ASC_NODE":"185.7997","OBJECT_ID":"2021-115AB","OBJECT_NAME":"STARLINK-3250","OBJECT_TYPE":"PAYLOAD","TLE_LINE2":"2 49749  53.2147 185.7997 0001906  49.3383 310.7789 15.40471510  4455","SITE":"AFETR","MEAN_ELEMENT_THEORY":"SGP4","ECCENTRICITY":"0.00019060","EPHEMERIS_TYPE":"0","SEMIMAJOR_AXIS":"6822.854","INCLINATION":"53.2147","CLASSIFICATION_TYPE":"U"}];
